{"type": "FeatureCollection", "features": [{"type": "Feature", "properties": {"norad_id": 24946, "name": "IRIDIUM 33", "group": "iridium-33-debris", "lat": -36.701142184601665, "lon": 68.67068994730286, "alt_km": 781.6906618071916, "timestamp": "2025-12-05T05:43:15.494341+00:00", "meta": {"OBJECT_NAME": "IRIDIUM 33", "OBJECT_ID": "1997-051C", "EPOCH": "2025-12-04T16:30:14.912640", "MEAN_MOTION": 14.3502848, "ECCENTRICITY": 0.0006229, "INCLINATION": 86.3872, "RA_OF_ASC_NODE": 71.6011, "ARG_OF_PERICENTER": 231.2861, "MEAN_ANOMALY": 128.7778, "EPHEMERIS_TYPE": 0, "CLASSIFICATION_TYPE": "U", "NORAD_CAT_ID": 24946, "ELEMENT_SET_NO": 999, "REV_AT_EPOCH": 47719, "BSTAR": 0.00024305, "MEAN_MOTION_DOT": 7.12e-06, "MEAN_MOTION_DDOT": 0}, "tle": {"line1": "1 24946U 97051C   25338.68767260  .00000712  00000+0  24305-3 0  9996", "line2": "2 24946  86.3872  71.6011 0006229 231.2861 128.7778 14.35028480477192"}}, "geometry": {"type": "Point", "coordinates": [68.67068994730286, -36.701142184601665]}}, {"type": "Feature", "properties": {"norad_id": 33773, "name": "IRIDIUM 33 DEB", "group": "iridium-33-debris", "lat": 58.464712615779696, "lon": 69.65394198902047, "alt_km": 745.1973533723358, "timestamp": "2025-12-05T05:43:15.494384+00:00", "meta": {"OBJECT_NAME": "IRIDIUM 33 DEB", "OBJECT_ID": "1997-051L", "EPOCH": "2025-12-04T16:08:15.792864", "MEAN_MOTION": 14.43229682, "ECCENTRICITY": 0.0011623, "INCLINATION": 86.4014, "RA_OF_ASC_NODE": 64.0075, "ARG_OF_PERICENTER": 171.2195, "MEAN_ANOMALY": 188.9211, "EPHEMERIS_TYPE": 0, "CLASSIFICATION_TYPE": "U", "NORAD_CAT_ID": 33773, "ELEMENT_SET_NO": 999, "REV_AT_EPOCH": 88231, "BSTAR": 0.00065225, "MEAN_MOTION_DOT": 2.214e-05, "MEAN_MOTION_DDOT": 0}, "tle": {"line1": "1 33773U 97051L   25338.67240501  .00002214  00000+0  65225-3 0  9992", "line2": "2 33773  86.4014  64.0075 0011623 171.2195 188.9211 14.43229682882312"}}, "geometry": {"type": "Point", "coordinates": [69.65394198902047, 58.464712615779696]}}, {"type": "Feature", "properties": {"norad_id": 33775, "name": "IRIDIUM 33 DEB", "group": "iridium-33-debris", "lat": -10.684496708858317, "lon": -126.5570350631037, "alt_km": 748.7642356909582, "timestamp": "2025-12-05T05:43:15.494401+00:00", "meta": {"OBJECT_NAME": "IRIDIUM 33 DEB", "OBJECT_ID": "1997-051N", "EPOCH": "2025-12-04T16:04:16.698144", "MEAN_MOTION": 14.41441459, "ECCENTRICITY": 0.0013354, "INCLINATION": 86.3643, "RA_OF_ASC_NODE": 52.9983, "ARG_OF_PERICENTER": 180.2166, "MEAN_ANOMALY": 300.9326, "EPHEMERIS_TYPE": 0, "CLASSIFICATION_TYPE": "U", "NORAD_CAT_ID": 33775, "ELEMENT_SET_NO": 999, "REV_AT_EPOCH": 88024, "BSTAR": 0.00065635, "MEAN_MOTION_DOT": 2.149e-05, "MEAN_MOTION_DDOT": 0}, "tle": {"line1": "1 33775U 97051N   25338.66963771  .00002149  00000+0  65635-3 0  9996", "line2": "2 33775  86.3643  52.9983 0013354 180.2166 300.9326 14.41441459880245"}}, "geometry": {"type": "Point", "coordinates": [-126.5570350631037, -10.684496708858317]}}, {"type": "Feature", "properties": {"norad_id": 33776, "name": "IRIDIUM 33 DEB", "group": "iridium-33-debris", "lat": 32.57895112051731, "lon": -98.37746368548716, "alt_km": 759.1102284184117, "timestamp": "2025-12-05T05:43:15.494416+00:00", "meta": {"OBJECT_NAME": "IRIDIUM 33 DEB", "OBJECT_ID": "1997-051P", "EPOCH": "2025-12-04T14:03:40.177152", "MEAN_MOTION": 14.38210253, "ECCENTRICITY": 0.0013468, "INCLINATION": 86.4037, "RA_OF_ASC_NODE": 84.1997, "ARG_OF_PERICENTER": 218.542, "MEAN_ANOMALY": 152.6812, "EPHEMERIS_TYPE": 0, "CLASSIFICATION_TYPE": "U", "NORAD_CAT_ID": 33776, "ELEMENT_SET_NO": 999, "REV_AT_EPOCH": 87965, "BSTAR": 0.00057275, "MEAN_MOTION_DOT": 1.76e-05, "MEAN_MOTION_DDOT": 0}, "tle": {"line1": "1 33776U 97051P   25338.58588168  .00001760  00000+0  57275-3 0  9990", "line2": "2 33776  86.4037  84.1997 0013468 218.5420 152.6812 14.38210253879657"}}, "geometry": {"type": "Point", "coordinates": [-98.37746368548716, 32.57895112051731]}}, {"type": "Feature", "properties": {"norad_id": 33777, "name": "IRIDIUM 33 DEB", "group": "iridium-33-debris", "lat": -7.377954589488569, "lon": -141.0636606176329, "alt_km": 712.1266366169639, "timestamp": "2025-12-05T05:43:15.494429+00:00", "meta": {"OBJECT_NAME": "IRIDIUM 33 DEB", "OBJECT_ID": "1997-051Q", "EPOCH": "2025-12-04T15:39:47.047104", "MEAN_MOTION": 14.55518436, "ECCENTRICITY": 0.000511, "INCLINATION": 86.3797, "RA_OF_ASC_NODE": 38.7212, "ARG_OF_PERICENTER": 287.0906, "MEAN_ANOMALY": 72.9742, "EPHEMERIS_TYPE": 0, "CLASSIFICATION_TYPE": "U", "NORAD_CAT_ID": 33777, "ELEMENT_SET_NO": 999, "REV_AT_EPOCH": 88416, "BSTAR": 0.0022811, "MEAN_MOTION_DOT": 9.958e-05, "MEAN_MOTION_DDOT": 0}, "tle": {"line1": "1 33777U 97051Q   25338.65262786  .00009958  00000+0  22811-2 0  9998", "line2": "2 33777  86.3797  38.7212 0005110 287.0906  72.9742 14.55518436884161"}}, "geometry": {"type": "Point", "coordinates": [-141.0636606176329, -7.377954589488569]}}, {"type": "Feature", "properties": {"norad_id": 33850, "name": "IRIDIUM 33 DEB", "group": "iridium-33-debris", "lat": 26.759395204638334, "lon": -148.44295360631344, "alt_km": 743.5996919333347, "timestamp": "2025-12-05T05:43:15.494441+00:00", "meta": {"OBJECT_NAME": "IRIDIUM 33 DEB", "OBJECT_ID": "1997-051T", "EPOCH": "2025-12-04T16:15:08.415072", "MEAN_MOTION": 14.42120572, "ECCENTRICITY": 0.001141, "INCLINATION": 86.3427, "RA_OF_ASC_NODE": 33.6464, "ARG_OF_PERICENTER": 186.1816, "MEAN_ANOMALY": 295.3072, "EPHEMERIS_TYPE": 0, "CLASSIFICATION_TYPE": "U", "NORAD_CAT_ID": 33850, "ELEMENT_SET_NO": 999, "REV_AT_EPOCH": 88036, "BSTAR": 0.00086956, "MEAN_MOTION_DOT": 2.88e-05, "MEAN_MOTION_DDOT": 0}, "tle": {"line1": "1 33850U 97051T   25338.67718073  .00002880  00000+0  86956-3 0  9995", "line2": "2 33850  86.3427  33.6464 0011410 186.1816 295.3072 14.42120572880366"}}, "geometry": {"type": "Point", "coordinates": [-148.44295360631344, 26.759395204638334]}}, {"type": "Feature", "properties": {"norad_id": 33853, "name": "IRIDIUM 33 DEB", "group": "iridium-33-debris", "lat": -77.90212257835434, "lon": -167.8465644552092, "alt_km": 754.2668941105312, "timestamp": "2025-12-05T05:43:15.494454+00:00", "meta": {"OBJECT_NAME": "IRIDIUM 33 DEB", "OBJECT_ID": "1997-051W", "EPOCH": "2025-12-04T01:16:34.217184", "MEAN_MOTION": 13.98972091, "ECCENTRICITY": 0.02067962, "INCLINATION": 86.0003, "RA_OF_ASC_NODE": 353.6212, "ARG_OF_PERICENTER": 262.6777, "MEAN_ANOMALY": 150.4676, "EPHEMERIS_TYPE": 0, "CLASSIFICATION_TYPE": "U", "NORAD_CAT_ID": 33853, "ELEMENT_SET_NO": 999, "REV_AT_EPOCH": 85224, "BSTAR": 0.0041696417, "MEAN_MOTION_DOT": 7.249e-05, "MEAN_MOTION_DDOT": 0}, "tle": {"line1": "1 33853U 97051W   25338.05317381  .00007249  00000+0  41696-2 0  9992", "line2": "2 33853  86.0003 353.6212 0206796 262.6777 150.4676 13.98972091852249"}}, "geometry": {"type": "Point", "coordinates": [-167.8465644552092, -77.90212257835434]}}, {"type": "Feature", "properties": {"norad_id": 33860, "name": "IRIDIUM 33 DEB", "group": "iridium-33-debris", "lat": 51.059396146643216, "lon": -153.92929169780993, "alt_km": 667.0155455077702, "timestamp": "2025-12-05T05:43:15.494466+00:00", "meta": {"OBJECT_NAME": "IRIDIUM 33 DEB", "OBJECT_ID": "1997-051AD", "EPOCH": "2025-12-04T15:05:54.621024", "MEAN_MOTION": 14.67202229, "ECCENTRICITY": 0.000847, "INCLINATION": 86.3845, "RA_OF_ASC_NODE": 30.8279, "ARG_OF_PERICENTER": 24.4738, "MEAN_ANOMALY": 128.1182, "EPHEMERIS_TYPE": 0, "CLASSIFICATION_TYPE": "U", "NORAD_CAT_ID": 33860, "ELEMENT_SET_NO": 999, "REV_AT_EPOCH": 88603, "BSTAR": 0.0030619, "MEAN_MOTION_DOT": 0.00017288, "MEAN_MOTION_DDOT": 0}, "tle": {"line1": "1 33860U 97051AD  25338.62910441  .00017288  00000+0  30619-2 0  9996", "line2": "2 33860  86.3845  30.8279 0008470  24.4738 128.1182 14.67202229886035"}}, "geometry": {"type": "Point", "coordinates": [-153.92929169780993, 51.059396146643216]}}, {"type": "Feature", "properties": {"norad_id": 33862, "name": "IRIDIUM 33 DEB", "group": "iridium-33-debris", "lat": 71.86667419762298, "lon": -150.2142970362622, "alt_km": 619.5704543799011, "timestamp": "2025-12-05T05:43:15.494478+00:00", "meta": {"OBJECT_NAME": "IRIDIUM 33 DEB", "OBJECT_ID": "1997-051AF", "EPOCH": "2025-12-04T16:42:30.042720", "MEAN_MOTION": 14.69271517, "ECCENTRICITY": 0.0053935, "INCLINATION": 86.41, "RA_OF_ASC_NODE": 41.0767, "ARG_OF_PERICENTER": 95.9978, "MEAN_ANOMALY": 25.5972, "EPHEMERIS_TYPE": 0, "CLASSIFICATION_TYPE": "U", "NORAD_CAT_ID": 33862, "ELEMENT_SET_NO": 999, "REV_AT_EPOCH": 88705, "BSTAR": 0.0035031, "MEAN_MOTION_DOT": 0.00021187, "MEAN_MOTION_DDOT": 0}, "tle": {"line1": "1 33862U 97051AF  25338.69618105  .00021187  00000+0  35031-2 0  9993", "line2": "2 33862  86.4100  41.0767 0053935  95.9978  25.5972 14.69271517887051"}}, "geometry": {"type": "Point", "coordinates": [-150.2142970362622, 71.86667419762298]}}, {"type": "Feature", "properties": {"norad_id": 33866, "name": "IRIDIUM 33 DEB", "group": "iridium-33-debris", "lat": -75.5508324804651, "lon": 81.6650485868266, "alt_km": 826.6145284146814, "timestamp": "2025-12-05T05:43:15.494489+00:00", "meta": {"OBJECT_NAME": "IRIDIUM 33 DEB", "OBJECT_ID": "1997-051AK", "EPOCH": "2025-12-04T14:58:37.870752", "MEAN_MOTION": 14.25229782, "ECCENTRICITY": 0.0113814, "INCLINATION": 86.3001, "RA_OF_ASC_NODE": 96.4688, "ARG_OF_PERICENTER": 187.2582, "MEAN_ANOMALY": 185.4361, "EPHEMERIS_TYPE": 0, "CLASSIFICATION_TYPE": "U", "NORAD_CAT_ID": 33866, "ELEMENT_SET_NO": 999, "REV_AT_EPOCH": 86695, "BSTAR": 0.0014526, "MEAN_MOTION_DOT": 3.671e-05, "MEAN_MOTION_DDOT": 0}, "tle": {"line1": "1 33866U 97051AK  25338.62404943  .00003671  00000+0  14526-2 0  9997", "line2": "2 33866  86.3001  96.4688 0113814 187.2582 185.4361 14.25229782866952"}}, "geometry": {"type": "Point", "coordinates": [81.6650485868266, -75.5508324804651]}}]}